{"timestamp": "2025-03-02T19:01:21.608120", "data": [ {"OBJECT_NAME": "BEIDOU-3 M2 (C20)", "OBJECT_ID": "2017-069B", "EPOCH": "2025-03-02T02:06:22.132224", "MEAN_MOTION": 1.8623083, "ECCENTRICITY": 0.000962, "INCLINATION": 56.2771, "RA_OF_ASC_NODE": 78.7206, "ARG_OF_PERICENTER": 321.7091, "MEAN_ANOMALY": 38.2751, "EPHEMERIS_TYPE": 0, "CLASSIFICATION_TYPE": "U", "NORAD_CAT_ID": 43002, "ELEMENT_SET_NO": 999, "REV_AT_EPOCH": 4980, "BSTAR": 0, "MEAN_MOTION_DOT": 1.2e-07, "MEAN_MOTION_DDOT": 0, "line1": "1 43002U 17069B   25061.08775616  .00000012  00000+0  00000+0 0  9997", "line2": "2 43002  56.2771  78.7206 0009620 321.7091  38.2751  1.86230830 49807"}, {"OBJECT_NAME": "GSAT0215 (GALILEO 19)", "OBJECT_ID": "2017-079A", "EPOCH": "2025-02-28T01:22:16.638528", "MEAN_MOTION": 1.70474294, "ECCENTRICITY": 7.09e-05, "INCLINATION": 55.2376, "RA_OF_ASC_NODE": 234.551, "ARG_OF_PERICENTER": 39.2891, "MEAN_ANOMALY": 320.6855, "EPHEMERIS_TYPE": 0, "CLASSIFICATION_TYPE": "U", "NORAD_CAT_ID": 43055, "ELEMENT_SET_NO": 999, "REV_AT_EPOCH": 4490, "BSTAR": 0, "MEAN_MOTION_DOT": 5.6e-07, "MEAN_MOTION_DDOT": 0, "line1": "1 43055U 17079A   25059.05713702  .00000056  00000+0  00000+0 0  9996", "line2": "2 43055  55.2376 234.5510 0000709  39.2891 320.6855  1.70474294 44909"}, {"OBJECT_NAME": "GSAT0216 (GALILEO 20)", "OBJECT_ID": "2017-079B", "EPOCH": "2025-03-01T12:31:22.447776", "MEAN_MOTION": 1.7047439, "ECCENTRICITY": 0.0001552, "INCLINATION": 55.237, "RA_OF_ASC_NODE": 234.5106, "ARG_OF_PERICENTER": 327.3134, "MEAN_ANOMALY": 32.6385, "EPHEMERIS_TYPE": 0, "CLASSIFICATION_TYPE": "U", "NORAD_CAT_ID": 43056, "ELEMENT_SET_NO": 999, "REV_AT_EPOCH": 4494, "BSTAR": 0, "MEAN_MOTION_DOT": 4.9e-07, "MEAN_MOTION_DDOT": 0, "line1": "1 43056U 17079B   25060.52178759  .00000049  00000+0  00000+0 0  9990", "line2": "2 43056  55.2370 234.5106 0001552 327.3134  32.6385  1.70474390 44942"}, {"OBJECT_NAME": "GSAT0217 (GALILEO 21)", "OBJECT_ID": "2017-079C", "EPOCH": "2025-02-27T09:30:19.571040", "MEAN_MOTION": 1.70474303, "ECCENTRICITY": 0.0002066, "INCLINATION": 55.235, "RA_OF_ASC_NODE": 234.5674, "ARG_OF_PERICENTER": 359.8326, "MEAN_ANOMALY": 0.1416, "EPHEMERIS_TYPE": 0, "CLASSIFICATION_TYPE": "U", "NORAD_CAT_ID": 43057, "ELEMENT_SET_NO": 999, "REV_AT_EPOCH": 4489, "BSTAR": 0, "MEAN_MOTION_DOT": 6e-07, "MEAN_MOTION_DDOT": 0, "line1": "1 43057U 17079C   25058.39605985  .00000060  00000+0  00000+0 0  9992", "line2": "2 43057  55.2350 234.5674 0002066 359.8326   0.1416  1.70474303 44898"}, {"OBJECT_NAME": "GSAT0218 (GALILEO 22)", "OBJECT_ID": "2017-079D", "EPOCH": "2025-02-28T18:56:31.256160", "MEAN_MOTION": 1.70474322, "ECCENTRICITY": 0.0001729, "INCLINATION": 55.2347, "RA_OF_ASC_NODE": 234.5265, "ARG_OF_PERICENTER": 306.3819, "MEAN_ANOMALY": 53.567, "EPHEMERIS_TYPE": 0, "CLASSIFICATION_TYPE": "U", "NORAD_CAT_ID": 43058, "ELEMENT_SET_NO": 999, "REV_AT_EPOCH": 4494, "BSTAR": 0, "MEAN_MOTION_DOT": 5.2e-07, "MEAN_MOTION_DDOT": 0, "line1": "1 43058U 17079D   25059.78925065  .00000052  00000+0  00000+0 0  9992", "line2": "2 43058  55.2347 234.5265 0001729 306.3819  53.5670  1.70474322 44941"}, {"OBJECT_NAME": "BEIDOU-3 M7 (C27)", "OBJECT_ID": "2018-003A", "EPOCH": "2025-03-01T20:01:42.761280", "MEAN_MOTION": 1.86232275, "ECCENTRICITY": 0.0004462, "INCLINATION": 54.7366, "RA_OF_ASC_NODE": 318.7334, "ARG_OF_PERICENTER": 61.0403, "MEAN_ANOMALY": 299.0609, "EPHEMERIS_TYPE": 0, "CLASSIFICATION_TYPE": "U", "NORAD_CAT_ID": 43107, "ELEMENT_SET_NO": 999, "REV_AT_EPOCH": 4856, "BSTAR": 0, "MEAN_MOTION_DOT": -5.5e-07, "MEAN_MOTION_DDOT": 0, "line1": "1 43107U 18003A   25060.83452270 -.00000055  00000+0  00000+0 0  9990", "line2": "2 43107  54.7366 318.7334 0004462  61.0403 299.0609  1.86232275 48561"}, {"OBJECT_NAME": "BEIDOU-3 M8 (C28)", "OBJECT_ID": "2018-003B", "EPOCH": "2025-03-01T05:45:46.668672", "MEAN_MOTION": 1.86230763, "ECCENTRICITY": 0.0003472, "INCLINATION": 54.73, "RA_OF_ASC_NODE": 318.7383, "ARG_OF_PERICENTER": 285.8667, "MEAN_ANOMALY": 74.1526, "EPHEMERIS_TYPE": 0, "CLASSIFICATION_TYPE": "U", "NORAD_CAT_ID": 43108, "ELEMENT_SET_NO": 999, "REV_AT_EPOCH": 4855, "BSTAR": 0, "MEAN_MOTION_DOT": -5.1e-07, "MEAN_MOTION_DDOT": 0, "line1": "1 43108U 18003B   25060.24012348 -.00000051  00000+0  00000+0 0  9990", "line2": "2 43108  54.7300 318.7383 0003472 285.8667  74.1526  1.86230763 48551"}, {"OBJECT_NAME": "BEIDOU-3 M4 (C22)", "OBJECT_ID": "2018-018A", "EPOCH": "2025-03-01T03:27:45.041184", "MEAN_MOTION": 1.86230987, "ECCENTRICITY": 0.0006494, "INCLINATION": 56.2356, "RA_OF_ASC_NODE": 78.7963, "ARG_OF_PERICENTER": 341.4215, "MEAN_ANOMALY": 18.6137, "EPHEMERIS_TYPE": 0, "CLASSIFICATION_TYPE": "U", "NORAD_CAT_ID": 43207, "ELEMENT_SET_NO": 999, "REV_AT_EPOCH": 4793, "BSTAR": 0, "MEAN_MOTION_DOT": 2.1e-07, "MEAN_MOTION_DDOT": 0, "line1": "1 43207U 18018A   25060.14427131  .00000021  00000+0  00000+0 0  9991", "line2": "2 43207  56.2356  78.7963 0006494 341.4215  18.6137  1.86230987 47931"}, {"OBJECT_NAME": "BEIDOU-3 M3 (C21)", "OBJECT_ID": "2018-018B", "EPOCH": "2025-03-02T06:49:57.998784", "MEAN_MOTION": 1.86231053, "ECCENTRICITY": 0.0009773, "INCLINATION": 56.2363, "RA_OF_ASC_NODE": 78.7624, "ARG_OF_PERICENTER": 312.1783, "MEAN_ANOMALY": 47.79, "EPHEMERIS_TYPE": 0, "CLASSIFICATION_TYPE": "U", "NORAD_CAT_ID": 43208, "ELEMENT_SET_NO": 999, "REV_AT_EPOCH": 4795, "BSTAR": 0, "MEAN_MOTION_DOT": 1e-07, "MEAN_MOTION_DDOT": 0, "line1": "1 43208U 18018B   25061.28469906  .00000010  00000+0  00000+0 0  9992", "line2": "2 43208  56.2363  78.7624 0009773 312.1783  47.7900  1.86231053 47950"}, {"OBJECT_NAME": "BEIDOU-3 M9 (C29)", "OBJECT_ID": "2018-029A", "EPOCH": "2025-03-01T10:18:52.540992", "MEAN_MOTION": 1.86232322, "ECCENTRICITY": 0.0001138, "INCLINATION": 54.6124, "RA_OF_ASC_NODE": 316.4301, "ARG_OF_PERICENTER": 338.1867, "MEAN_ANOMALY": 21.8677, "EPHEMERIS_TYPE": 0, "CLASSIFICATION_TYPE": "U", "NORAD_CAT_ID": 43245, "ELEMENT_SET_NO": 999, "REV_AT_EPOCH": 4709, "BSTAR": 0, "MEAN_MOTION_DOT": -4.9e-07, "MEAN_MOTION_DDOT": 0, "line1": "1 43245U 18029A   25060.42977478 -.00000049  00000+0  00000+0 0  9991", "line2": "2 43245  54.6124 316.4301 0001138 338.1867  21.8677  1.86232322 47099"}, {"OBJECT_NAME": "BEIDOU-3 M10 (C30)", "OBJECT_ID": "2018-029B", "EPOCH": "2025-02-27T17:59:16.634112", "MEAN_MOTION": 1.86228838, "ECCENTRICITY": 0.0005057, "INCLINATION": 54.6113, "RA_OF_ASC_NODE": 316.5157, "ARG_OF_PERICENTER": 11.418, "MEAN_ANOMALY": 348.6537, "EPHEMERIS_TYPE": 0, "CLASSIFICATION_TYPE": "U", "NORAD_CAT_ID": 43246, "ELEMENT_SET_NO": 999, "REV_AT_EPOCH": 4704, "BSTAR": 0, "MEAN_MOTION_DOT": -4.1e-07, "MEAN_MOTION_DDOT": 0, "line1": "1 43246U 18029B   25058.74949808 -.00000041  00000+0  00000+0 0  9992", "line2": "2 43246  54.6113 316.5157 0005057  11.4180 348.6537  1.86228838 47048"}, {"OBJECT_NAME": "COSMOS 2527 (756)", "OBJECT_ID": "2018-053A", "EPOCH": "2025-02-28T03:08:55.836384", "MEAN_MOTION": 2.13102232, "ECCENTRICITY": 0.0009818, "INCLINATION": 65.3205, "RA_OF_ASC_NODE": 89.7499, "ARG_OF_PERICENTER": 242.9198, "MEAN_ANOMALY": 117.0582, "EPHEMERIS_TYPE": 0, "CLASSIFICATION_TYPE": "U", "NORAD_CAT_ID": 43508, "ELEMENT_SET_NO": 999, "REV_AT_EPOCH": 5217, "BSTAR": 0, "MEAN_MOTION_DOT": 5.9e-07, "MEAN_MOTION_DDOT": 0, "line1": "1 43508U 18053A   25059.13120181  .00000059  00000+0  00000+0 0  9997", "line2": "2 43508  65.3205  89.7499 0009818 242.9198 117.0582  2.13102232 52175"}, {"OBJECT_NAME": "BEIDOU-2 IGSO-7 (C16)", "OBJECT_ID": "2018-057A", "EPOCH": "2025-03-01T16:02:32.134272", "MEAN_MOTION": 1.00289281, "ECCENTRICITY": 0.0085321, "INCLINATION": 55.1593, "RA_OF_ASC_NODE": 167.1572, "ARG_OF_PERICENTER": 234.793, "MEAN_ANOMALY": 110.2797, "EPHEMERIS_TYPE": 0, "CLASSIFICATION_TYPE": "U", "NORAD_CAT_ID": 43539, "ELEMENT_SET_NO": 999, "REV_AT_EPOCH": 2438, "BSTAR": 0, "MEAN_MOTION_DOT": -1.44e-06, "MEAN_MOTION_DDOT": 0, "line1": "1 43539U 18057A   25060.66842748 -.00000144  00000+0  00000+0 0  9991", "line2": "2 43539  55.1593 167.1572 0085321 234.7930 110.2797  1.00289281 24385"}, {"OBJECT_NAME": "GSAT0221 (GALILEO 25)", "OBJECT_ID": "2018-060A", "EPOCH": "2025-02-28T02:30:06.318720", "MEAN_MOTION": 1.70475287, "ECCENTRICITY": 0.0005667, "INCLINATION": 57.2867, "RA_OF_ASC_NODE": 354.5742, "ARG_OF_PERICENTER": 302.2626, "MEAN_ANOMALY": 57.6852, "EPHEMERIS_TYPE": 0, "CLASSIFICATION_TYPE": "U", "NORAD_CAT_ID": 43564, "ELEMENT_SET_NO": 999, "REV_AT_EPOCH": 4108, "BSTAR": 0, "MEAN_MOTION_DOT": -8.2e-07, "MEAN_MOTION_DDOT": 0, "line1": "1 43564U 18060A   25059.10423980 -.00000082  00000+0  00000+0 0  9994", "line2": "2 43564  57.2867 354.5742 0005667 302.2626  57.6852  1.70475287 41081"}, {"OBJECT_NAME": "GSAT0222 (GALILEO 26)", "OBJECT_ID": "2018-060B", "EPOCH": "2025-02-28T07:45:19.258848", "MEAN_MOTION": 1.70474977, "ECCENTRICITY": 0.0004208, "INCLINATION": 57.2902, "RA_OF_ASC_NODE": 354.5708, "ARG_OF_PERICENTER": 282.3447, "MEAN_ANOMALY": 77.6114, "EPHEMERIS_TYPE": 0, "CLASSIFICATION_TYPE": "U", "NORAD_CAT_ID": 43565, "ELEMENT_SET_NO": 999, "REV_AT_EPOCH": 4113, "BSTAR": 0, "MEAN_MOTION_DOT": -8.2e-07, "MEAN_MOTION_DDOT": 0, "line1": "1 43565U 18060B   25059.32313957 -.00000082  00000+0  00000+0 0  9991", "line2": "2 43565  57.2902 354.5708 0004208 282.3447  77.6114  1.70474977 41137"}, {"OBJECT_NAME": "GSAT0219 (GALILEO 23)", "OBJECT_ID": "2018-060C", "EPOCH": "2025-03-01T03:08:58.595136", "MEAN_MOTION": 1.70475233, "ECCENTRICITY": 0.0005051, "INCLINATION": 57.2893, "RA_OF_ASC_NODE": 354.5507, "ARG_OF_PERICENTER": 310.5119, "MEAN_ANOMALY": 49.4489, "EPHEMERIS_TYPE": 0, "CLASSIFICATION_TYPE": "U", "NORAD_CAT_ID": 43566, "ELEMENT_SET_NO": 999, "REV_AT_EPOCH": 4112, "BSTAR": 0, "MEAN_MOTION_DOT": -8.4e-07, "MEAN_MOTION_DDOT": 0, "line1": "1 43566U 18060C   25060.13123374 -.00000084  00000+0  00000+0 0  9997", "line2": "2 43566  57.2893 354.5507 0005051 310.5119  49.4489  1.70475233 41128"}]}